OBJECT_NAME,OBJECT_ID,EPOCH,MEAN_MOTION,ECCENTRICITY,INCLINATION,RA_OF_ASC_NODE,ARG_OF_PERICENTER,MEAN_ANOMALY,EPHEMERIS_TYPE,CLASSIFICATION_TYPE,NORAD_CAT_ID,ELEMENT_SET_NO,REV_AT_EPOCH,BSTAR,MEAN_MOTION_DOT,MEAN_MOTION_DDOT
STARLINK-34469,2025-137X,2026-05-13T03:00:03.123360,15.30204956,.00011235,53.1600,35.6961,77.2160,282.8967,0,U,64615,999,5060,.49805008E-3,.14423E-3,0
STARLINK-34413,2025-137Y,2026-05-13T01:03:22.201344,15.30191961,.0001111,53.1606,36.6100,83.0965,277.0162,0,U,64616,999,5068,.15059144E-3,.4102E-4,0
STARLINK-34417,2025-137Z,2026-05-12T23:28:28.452576,15.30196184,.0001673,53.1597,23.9023,103.5410,256.5777,0,U,64617,999,5085,.72559E-3,.21189E-3,0
STARLINK-34415,2025-137AA,2026-05-13T03:28:55.607520,15.30200548,.00010862,53.1595,35.8167,64.9621,295.1493,0,U,64618,999,5060,.33614029E-3,.9609E-4,0
STARLINK-34416,2025-137AB,2026-05-13T03:24:22.123872,15.30200954,.00013168,53.1593,35.7986,47.5524,312.5588,0,U,64619,999,5060,.32761353E-3,.9356E-4,0
STARLINK-34414,2025-137AC,2026-05-12T23:17:09.560256,15.30197247,.00012678,53.1606,36.8545,92.3527,267.7619,0,U,64620,999,5057,.27689913E-3,.785E-4,0
HAWK-12C,2025-138A,2026-05-12T23:24:15.257376,15.17932759,.00121732,97.4350,136.0279,264.9021,95.0823,0,U,64621,999,4852,.12592221E-3,.2492E-4,0
HAWK-12B,2025-138B,2026-05-12T23:24:30.806784,15.17932353,.00111924,97.4472,136.6197,259.2532,100.7442,0,U,64622,999,4852,.12505793E-3,.2473E-4,0
HAWK-12A,2025-138C,2026-05-12T23:23:56.887872,15.17933231,.00121362,97.4411,136.3224,258.7849,101.2021,0,U,64623,999,4852,.12530049E-3,.2479E-4,0
KESTREL-0A,2025-138D,2026-05-12T22:48:28.372896,15.22601892,.001153,97.4410,137.4228,243.7094,116.2958,0,U,64624,999,4858,.25041E-3,.5759E-4,0
STARLINK-34464,2025-139A,2026-05-12T20:34:52.459968,15.34394371,.00014468,53.1601,188.6248,65.3838,294.7315,0,U,64664,999,5011,.35839797E-3,.1175E-3,0
STARLINK-34555,2025-139B,2026-05-13T02:47:01.534272,15.34400278,.00014223,53.1595,187.3956,86.8550,273.2615,0,U,64665,999,5005,.33946254E-3,.1111E-3,0
STARLINK-34390,2025-139C,2026-05-13T03:32:20.701248,15.34400738,.00013185,53.1607,186.8789,89.2162,270.8992,0,U,64666,999,5022,.4934076E-3,.16331E-3,0
STARLINK-34382,2025-139D,2026-05-13T04:18:53.668512,15.30210884,.0001007,53.1571,187.7894,100.6994,259.4120,0,U,64667,999,5015,.3960941E-3,.11394E-3,0
STARLINK-34395,2025-139E,2026-05-13T04:32:56.474592,15.34406648,.00015443,53.1581,187.1421,94.0318,266.0861,0,U,64668,999,5016,.61071871E-3,.20318E-3,0
STARLINK-34394,2025-139F,2026-05-13T04:14:45.652128,15.34403271,.00012256,53.1593,187.0656,96.0951,264.0192,0,U,64669,999,5016,.37294272E-3,.12246E-3,0
STARLINK-34287,2025-139G,2026-05-13T04:05:40.265088,15.34399948,.00012426,53.1588,187.0239,94.1887,265.9258,0,U,64670,999,5016,.29258745E-3,.9522E-4,0
STARLINK-34365,2025-139H,2026-05-12T20:50:01.116672,15.34399948,.0000574,53.1590,188.6878,75.9914,284.1153,0,U,64671,999,5017,.38949E-3,.12806E-3,0
STARLINK-34442,2025-139J,2026-05-12T10:35:44.252160,15.34392524,.0001097,53.1591,190.2920,86.0664,274.0464,0,U,64672,999,5005,.1248E-3,.3842E-4,0
STARLINK-34288,2025-139K,2026-05-13T03:56:34.943712,15.34399847,.00010909,53.1599,186.9836,80.7837,279.3288,0,U,64673,999,5016,.32967474E-3,.10778E-3,0
STARLINK-34539,2025-139L,2026-05-12T10:29:40.581600,15.34410436,.0000893,53.1593,190.2666,55.5944,304.5143,0,U,64674,999,4995,.42592E-3,.14046E-3,0
STARLINK-34590,2025-139M,2026-05-13T02:55:27.071040,15.30209271,.00012146,53.1558,188.1350,84.5518,275.5622,0,U,64675,999,5014,.37722387E-3,.10833E-3,0
STARLINK-34573,2025-139N,2026-05-12T21:14:07.801728,15.34401539,.0000862,53.1607,188.0814,55.4147,304.6936,0,U,64676,999,5012,.4001E-3,.13166E-3,0
STARLINK-34605,2025-139P,2026-05-12T20:10:20.308512,15.30207455,.00014236,53.1600,178.5810,72.9853,287.1304,0,U,64677,999,5025,.17649919E-3,.4873E-4,0
STARLINK-34525,2025-139Q,2026-05-13T04:21:54.546048,15.30197734,.00012962,53.1579,187.7954,71.8153,288.2989,0,U,64678,999,5015,.26072822E-3,.737E-4,0
STARLINK-34489,2025-139R,2026-05-13T04:35:58.165152,15.34402648,.00014082,53.1605,187.1477,81.7584,278.3578,0,U,64679,999,5016,.40098286E-3,.13197E-3,0
STARLINK-34502,2025-139S,2026-05-13T03:35:22.438464,15.34400058,.00016076,53.1600,186.8850,109.0699,251.0478,0,U,64680,999,5016,.45919454E-3,.1517E-3,0
STARLINK-34553,2025-139T,2026-05-12T21:11:05.888256,15.34401893,.0001073,53.1608,188.0655,60.9397,299.1713,0,U,64681,999,5012,.28152E-3,.9148E-4,0
STARLINK-34551,2025-139U,2026-05-12T20:14:53.475936,15.30198521,.00011939,53.1587,178.5885,83.6722,276.4414,0,U,64682,999,5025,.31818427E-3,.9076E-4,0
STARLINK-34550,2025-139V,2026-05-12T10:50:53.191392,15.34408488,.0001214,53.1592,190.3524,80.7297,279.3843,0,U,64683,999,5005,.30017E-3,.9782E-4,0
