STARLINK-34469          
1 64615U 25137X   26133.12503615  .00014423  00000+0  49805-3 0  9990
2 64615  53.1600  35.6961 0001123  77.2160 282.8967 15.30204956 50607
STARLINK-34413          
1 64616U 25137Y   26133.04400696  .00004102  00000+0  15059-3 0  9994
2 64616  53.1606  36.6100 0001111  83.0965 277.0162 15.30191961 50687
STARLINK-34417          
1 64617U 25137Z   26132.97810709  .00021189  00000+0  72559-3 0  9998
2 64617  53.1597  23.9023 0001673 103.5410 256.5777 15.30196184 50851
STARLINK-34415          
1 64618U 25137AA  26133.14508805  .00009609  00000+0  33614-3 0  9992
2 64618  53.1595  35.8167 0001086  64.9621 295.1493 15.30200548 50600
STARLINK-34416          
1 64619U 25137AB  26133.14192273  .00009356  00000+0  32761-3 0  9992
2 64619  53.1593  35.7986 0001316  47.5524 312.5588 15.30200954 50602
STARLINK-34414          
1 64620U 25137AC  26132.97024954  .00007850  00000+0  27690-3 0  9996
2 64620  53.1606  36.8545 0001267  92.3527 267.7619 15.30197247 50570
HAWK-12C                
1 64621U 25138A   26132.97517659  .00002492  00000+0  12592-3 0  9999
2 64621  97.4350 136.0279 0012173 264.9021  95.0823 15.17932759 48520
HAWK-12B                
1 64622U 25138B   26132.97535656  .00002473  00000+0  12506-3 0  9991
2 64622  97.4472 136.6197 0011192 259.2532 100.7442 15.17932353 48526
HAWK-12A                
1 64623U 25138C   26132.97496398  .00002479  00000+0  12530-3 0  9994
2 64623  97.4411 136.3224 0012136 258.7849 101.2021 15.17933231 48527
KESTREL-0A              
1 64624U 25138D   26132.95032839  .00005759  00000+0  25041-3 0  9994
2 64624  97.4410 137.4228 0011530 243.7094 116.2958 15.22601892 48588
STARLINK-34464          
1 64664U 25139A   26132.85755162  .00011750  00000+0  35840-3 0  9995
2 64664  53.1601 188.6248 0001446  65.3838 294.7315 15.34394371 50117
STARLINK-34555          
1 64665U 25139B   26133.11598998  .00011110  00000+0  33946-3 0  9993
2 64665  53.1595 187.3956 0001422  86.8550 273.2615 15.34400278 50057
STARLINK-34390          
1 64666U 25139C   26133.14746182  .00016331  00000+0  49341-3 0  9993
2 64666  53.1607 186.8789 0001318  89.2162 270.8992 15.34400738 50221
STARLINK-34382          
1 64667U 25139D   26133.17978783  .00011394  00000+0  39609-3 0  9991
2 64667  53.1571 187.7894 0001007 100.6994 259.4120 15.30210884 50150
STARLINK-34395          
1 64668U 25139E   26133.18954253  .00020318  00000+0  61072-3 0  9994
2 64668  53.1581 187.1421 0001544  94.0318 266.0861 15.34406648 50160
STARLINK-34394          
1 64669U 25139F   26133.17691727  .00012246  00000+0  37294-3 0  9998
2 64669  53.1593 187.0656 0001225  96.0951 264.0192 15.34403271 50168
STARLINK-34287          
1 64670U 25139G   26133.17060492  .00009522  00000+0  29259-3 0  9994
2 64670  53.1588 187.0239 0001242  94.1887 265.9258 15.34399948 50165
STARLINK-34365          
1 64671U 25139H   26132.86806848  .00012806  00000+0  38949-3 0  9998
2 64671  53.1590 188.6878 0000574  75.9914 284.1153 15.34399948 50178
STARLINK-34442          
1 64672U 25139J   26132.44148440  .00003842  00000+0  12480-3 0  9992
2 64672  53.1591 190.2920 0001097  86.0664 274.0464 15.34392524 50056
STARLINK-34288          
1 64673U 25139K   26133.16429333  .00010778  00000+0  32967-3 0  9994
2 64673  53.1599 186.9836 0001090  80.7837 279.3288 15.34399847 50168
STARLINK-34539          
1 64674U 25139L   26132.43727525  .00014046  00000+0  42592-3 0  9995
2 64674  53.1593 190.2666 0000893  55.5944 304.5143 15.34410436 49955
STARLINK-34590          
1 64675U 25139M   26133.12184110  .00010833  00000+0  37722-3 0  9999
2 64675  53.1558 188.1350 0001214  84.5518 275.5622 15.30209271 50141
STARLINK-34573          
1 64676U 25139N   26132.88481252  .00013166  00000+0  40010-3 0  9995
2 64676  53.1607 188.0814 0000862  55.4147 304.6936 15.34401539 50129
STARLINK-34605          
1 64677U 25139P   26132.84051283  .00004873  00000+0  17650-3 0  9998
2 64677  53.1600 178.5810 0001423  72.9853 287.1304 15.30207455 50250
STARLINK-34525          
1 64678U 25139Q   26133.18188132  .00007370  00000+0  26073-3 0  9995
2 64678  53.1579 187.7954 0001296  71.8153 288.2989 15.30197734 50154
STARLINK-34489          
1 64679U 25139R   26133.19164543  .00013197  00000+0  40098-3 0  9994
2 64679  53.1605 187.1477 0001408  81.7584 278.3578 15.34402648 50164
STARLINK-34502          
1 64680U 25139S   26133.14956526  .00015170  00000+0  45919-3 0  9991
2 64680  53.1600 186.8850 0001607 109.0699 251.0478 15.34400058 50164
STARLINK-34553          
1 64681U 25139T   26132.88270704  .00009148  00000+0  28152-3 0  9997
2 64681  53.1608 188.0655 0001073  60.9397 299.1713 15.34401893 50126
STARLINK-34551          
1 64682U 25139U   26132.84367449  .00009076  00000+0  31818-3 0  9990
2 64682  53.1587 178.5885 0001193  83.6722 276.4414 15.30198521 50256
STARLINK-34550          
1 64683U 25139V   26132.45200453  .00009782  00000+0  30017-3 0  9993
2 64683  53.1592 190.3524 0001214  80.7297 279.3843 15.34408488 50050
